{
  "norad_id": 51854,
  "name": "STARLINK-3541",
  "history": [
    {
      "epoch": "2026-03-28T19:40:36.615936",
      "apogee_km": 521.9791713183868,
      "perigee_km": 520.5712772598981,
      "latitude_deg": -51.98953176899313,
      "longitude_deg": 164.10735104000196,
      "semi_major_axis_km": 6899.412224289142,
      "eccentricity": 0.00010203,
      "inclination_deg": 53.2127,
      "raan_deg": 290.7295,
      "arg_perigee_deg": 85.106,
      "mean_anomaly_deg": 275.0051,
      "mean_motion_rev_day": 15.14902287
    }
  ]
}