{"fetched_at":"2026-03-30T06:02:59Z","count":15439,"tles":[{"name":"STARLINK-3541","line1":"1 51854U 22022C   26087.81986824  .00012111  00000+0  65797-3 0  9992","line2":"2 51854  53.2127 290.7295 0001020  85.1060 275.0051 15.14902287225943","category":"Starlink"}]}